[
    {
        "Altitude(m)": 560893.9252479245,
        "Argument of Periapsis(deg)": 0.0,
        "Eccentricity": 0.0,
        "Inclination(deg)": 53.0,
        "Latitude(deg)": -25.776407405720576,
        "Longitude(deg)": -21.186662569256136,
        "Mean Anomaly(deg)": -32.72730000000003,
        "RAAN(deg)": 100.0,
        "Satellite Name": "Starlink Shell 1 460",
        "Satellite Number": 460,
        "Semi-Major Axis(m)": 6931778.249405717,
        "Time(s)": 0
    },
    {
        "Altitude(m)": 560723.3152871467,
        "Argument of Periapsis(deg)": 0.00034857847951123687,
        "Eccentricity": 0.0,
        "Inclination(deg)": 53.0,
        "Latitude(deg)": -25.30744655471556,
        "Longitude(deg)": -20.76656993500603,
        "Mean Anomaly(deg)": -32.100468796443316,
        "RAAN(deg)": 99.99948122992252,
        "Satellite Name": "Starlink Shell 1 460",
        "Satellite Number": 460,
        "Semi-Major Axis(m)": 6931778.249405717,
        "Time(s)": 10
    },
    {
        "Altitude(m)": 560553.5201617585,
        "Argument of Periapsis(deg)": 0.0006971569590224737,
        "Eccentricity": 0.0,
        "Inclination(deg)": 53.0,
        "Latitude(deg)": -24.837009071983708,
        "Longitude(deg)": -20.350003939253337,
        "Mean Anomaly(deg)": -31.473637592886554,
        "RAAN(deg)": 99.99896245984505,
        "Satellite Name": "Starlink Shell 1 460",
        "Satellite Number": 460,
        "Semi-Major Axis(m)": 6931778.249405717,
        "Time(s)": 20
    },
    {
        "Altitude(m)": 560384.6014763812,
        "Argument of Periapsis(deg)": 0.0010457354385337105,
        "Eccentricity": 0.0,
        "Inclination(deg)": 53.0,
        "Latitude(deg)": -24.365135908646327,
        "Longitude(deg)": -19.93687418182897,
        "Mean Anomaly(deg)": -30.8468063893299,
        "RAAN(deg)": 99.99844368976758,
        "Satellite Name": "Starlink Shell 1 460",
        "Satellite Number": 460,
        "Semi-Major Axis(m)": 6931778.249405717,
        "Time(s)": 30
    },
    {
        "Altitude(m)": 560216.6202966454,
        "Argument of Periapsis(deg)": 0.0013943139180449475,
        "Eccentricity": 0.0,
        "Inclination(deg)": 53.0,
        "Latitude(deg)": -23.891867188487243,
        "Longitude(deg)": -19.527091002305028,
        "Mean Anomaly(deg)": -30.219975185773126,
        "RAAN(deg)": 99.9979249196901,
        "Satellite Name": "Starlink Shell 1 460",
        "Satellite Number": 460,
        "Semi-Major Axis(m)": 6931778.249405717,
        "Time(s)": 40
    },
    {
        "Altitude(m)": 560049.6371218642,
        "Argument of Periapsis(deg)": 0.0017428923975561844,
        "Eccentricity": 0.0,
        "Inclination(deg)": 53.0,
        "Latitude(deg)": -23.417242233802387,
        "Longitude(deg)": -19.120566473020165,
        "Mean Anomaly(deg)": -29.59314398221643,
        "RAAN(deg)": 99.99740614961264,
        "Satellite Name": "Starlink Shell 1 460",
        "Satellite Number": 460,
        "Semi-Major Axis(m)": 6931778.249405717,
        "Time(s)": 50
    },
    {
        "Altitude(m)": 559883.7118578864,
        "Argument of Periapsis(deg)": 0.002091470877067421,
        "Eccentricity": 0.0,
        "Inclination(deg)": 53.0,
        "Latitude(deg)": -22.941299590726654,
        "Longitude(deg)": -18.71721387783508,
        "Mean Anomaly(deg)": -28.96631277865977,
        "RAAN(deg)": 99.99688737953517,
        "Satellite Name": "Starlink Shell 1 460",
        "Satellite Number": 460,
        "Semi-Major Axis(m)": 6931778.249405717,
        "Time(s)": 60
    },
    {
        "Altitude(m)": 559718.903790316,
        "Argument of Periapsis(deg)": 0.0024400493565786582,
        "Eccentricity": 0.0,
        "Inclination(deg)": 53.0,
        "Latitude(deg)": -22.464077054043077,
        "Longitude(deg)": -18.31694718962691,
        "Mean Anomaly(deg)": -28.339481575102948,
        "RAAN(deg)": 99.99636860945769,
        "Satellite Name": "Starlink Shell 1 460",
        "Satellite Number": 460,
        "Semi-Major Axis(m)": 6931778.249405717,
        "Time(s)": 70
    },
    {
        "Altitude(m)": 559555.2715579517,
        "Argument of Periapsis(deg)": 0.002788627836089895,
        "Eccentricity": 0.0,
        "Inclination(deg)": 53.0,
        "Latitude(deg)": -21.985611691479182,
        "Longitude(deg)": -17.919682059521538,
        "Mean Anomaly(deg)": -27.712650371546307,
        "RAAN(deg)": 99.99584983938021,
        "Satellite Name": "Starlink Shell 1 460",
        "Satellite Number": 460,
        "Semi-Major Axis(m)": 6931778.249405717,
        "Time(s)": 80
    },
    {
        "Altitude(m)": 559392.8731265632,
        "Argument of Periapsis(deg)": 0.0031372063156011316,
        "Eccentricity": 0.0,
        "Inclination(deg)": 53.0,
        "Latitude(deg)": -21.505939867487587,
        "Longitude(deg)": -17.525335292231,
        "Mean Anomaly(deg)": -27.085819167989584,
        "RAAN(deg)": 99.99533106930275,
        "Satellite Name": "Starlink Shell 1 460",
        "Satellite Number": 460,
        "Semi-Major Axis(m)": 6931778.249405717,
        "Time(s)": 90
    },
    {
        "Altitude(m)": 559231.7657630045,
        "Argument of Periapsis(deg)": 0.0034857847951123688,
        "Eccentricity": 0.0,
        "Inclination(deg)": 53.0,
        "Latitude(deg)": -21.025097266521026,
        "Longitude(deg)": -17.13382432047732,
        "Mean Anomaly(deg)": -26.458987964432875,
        "RAAN(deg)": 99.99481229922527,
        "Satellite Name": "Starlink Shell 1 460",
        "Satellite Number": 460,
        "Semi-Major Axis(m)": 6931778.249405717,
        "Time(s)": 100
    },
    {
        "Altitude(m)": 559072.0060096079,
        "Argument of Periapsis(deg)": 0.003834363274623606,
        "Eccentricity": 0.0,
        "Inclination(deg)": 53.0,
        "Latitude(deg)": -20.543118915807998,
        "Longitude(deg)": -16.745068191475628,
        "Mean Anomaly(deg)": -25.832156760876167,
        "RAAN(deg)": 99.99429352914781,
        "Satellite Name": "Starlink Shell 1 460",
        "Satellite Number": 460,
        "Semi-Major Axis(m)": 6931778.249405717,
        "Time(s)": 110
    },
    {
        "Altitude(m)": 558913.6496589606,
        "Argument of Periapsis(deg)": 0.004182941754134842,
        "Eccentricity": 0.0,
        "Inclination(deg)": 53.0,
        "Latitude(deg)": -20.060039207632283,
        "Longitude(deg)": -16.358987039819333,
        "Mean Anomaly(deg)": -25.20532555731941,
        "RAAN(deg)": 99.99377475907033,
        "Satellite Name": "Starlink Shell 1 460",
        "Satellite Number": 460,
        "Semi-Major Axis(m)": 6931778.249405717,
        "Time(s)": 120
    },
    {
        "Altitude(m)": 558756.7517290341,
        "Argument of Periapsis(deg)": 0.004531520233646079,
        "Eccentricity": 0.0,
        "Inclination(deg)": 53.0,
        "Latitude(deg)": -19.57589192112617,
        "Longitude(deg)": -15.97550155972616,
        "Mean Anomaly(deg)": -24.5784943537627,
        "RAAN(deg)": 99.99325598899286,
        "Satellite Name": "Starlink Shell 1 460",
        "Satellite Number": 460,
        "Semi-Major Axis(m)": 6931778.249405717,
        "Time(s)": 130
    },
    {
        "Altitude(m)": 558601.3664386831,
        "Argument of Periapsis(deg)": 0.0048800987131573164,
        "Eccentricity": 0.0,
        "Inclination(deg)": 53.0,
        "Latitude(deg)": -19.0907102435882,
        "Longitude(deg)": -15.594533989594833,
        "Mean Anomaly(deg)": -23.95166315020599,
        "RAAN(deg)": 99.99273721891538,
        "Satellite Name": "Starlink Shell 1 460",
        "Satellite Number": 460,
        "Semi-Major Axis(m)": 6931778.249405717,
        "Time(s)": 140
    },
    {
        "Altitude(m)": 558447.5471835072,
        "Argument of Periapsis(deg)": 0.005228677192668553,
        "Eccentricity": 0.0,
        "Inclination(deg)": 53.0,
        "Latitude(deg)": -18.604526791330187,
        "Longitude(deg)": -15.216007583197019,
        "Mean Anomaly(deg)": -23.324831946649283,
        "RAAN(deg)": 99.99221844883792,
        "Satellite Name": "Starlink Shell 1 460",
        "Satellite Number": 460,
        "Semi-Major Axis(m)": 6931778.249405717,
        "Time(s)": 150
    },
    {
        "Altitude(m)": 558295.346512137,
        "Argument of Periapsis(deg)": 0.00557725567217979,
        "Eccentricity": 0.0,
        "Inclination(deg)": 53.0,
        "Latitude(deg)": -18.117373630065167,
        "Longitude(deg)": -14.839846080442495,
        "Mean Anomaly(deg)": -22.698000743092617,
        "RAAN(deg)": 99.99169967876044,
        "Satellite Name": "Starlink Shell 1 460",
        "Satellite Number": 460,
        "Semi-Major Axis(m)": 6931778.249405717,
        "Time(s)": 160
    },
    {
        "Altitude(m)": 558144.8161029126,
        "Argument of Periapsis(deg)": 0.0059258341516910265,
        "Eccentricity": 0.0,
        "Inclination(deg)": 53.0,
        "Latitude(deg)": -17.6292822948491,
        "Longitude(deg)": -14.465974690650468,
        "Mean Anomaly(deg)": -22.071169539535816,
        "RAAN(deg)": 99.99118090868298,
        "Satellite Name": "Starlink Shell 1 460",
        "Satellite Number": 460,
        "Semi-Major Axis(m)": 6931778.249405717,
        "Time(s)": 170
    },
    {
        "Altitude(m)": 557996.0067409903,
        "Argument of Periapsis(deg)": 0.006274412631202263,
        "Eccentricity": 0.0,
        "Inclination(deg)": 53.0,
        "Latitude(deg)": -17.140283809582684,
        "Longitude(deg)": -14.094319562635185,
        "Mean Anomaly(deg)": -21.44433833597916,
        "RAAN(deg)": 99.99066213860549,
        "Satellite Name": "Starlink Shell 1 460",
        "Satellite Number": 460,
        "Semi-Major Axis(m)": 6931778.249405717,
        "Time(s)": 180
    }
]